IRIDIUM 57              
1 25273U 98019B   24253.08395563  .00001359  00000+0  46725-3 0  9995
2 25273  86.3898 262.9636 0002202  90.4854 269.6595 14.35381696384668
IRIDIUM 63              
1 25286U 98021B   24252.93568282  .00002190  00000+0  74789-3 0  9990
2 25286  86.4037 199.9578 0002585  87.9434 272.2059 14.35971818383475
IRIDIUM 69              
1 25319U 98026A   24253.45208027  .00002765  00000+0  86846-3 0  9993
2 25319  86.4005 213.8606 0001575 152.7999 207.3283 14.40225166382886
IRIDIUM 71              
1 25320U 98026B   24253.43407618  .00002634  00000+0  82166-3 0  9996
2 25320  86.4012 208.6160 0001044  27.5300 332.5955 14.40537408383411
IRIDIUM 73              
1 25344U 98032C   24253.52251467  .00002910  00000+0  73357-3 0  9997
2 25344  86.4485 165.9239 0002050  96.9577 263.1862 14.50851137390151
IRIDIUM 82              
1 25467U 98051A   24253.05941456  .00031149  00000+0  14411-2 0  9997
2 25467  86.3706 245.8530 0115401 270.8144  87.9875 15.14158032381164
