<?xml version="1.0" encoding="UTF-8"?>
<ndm xmlns:xsi="http://www.w3.org/2001/XMLSchema-instance" xsi:noNamespaceSchemaLocation="https://sanaregistry.org/r/ndmxml_unqualified/ndmxml-2.0.0-master-2.0.xsd">
<omm id="CCSDS_OMM_VERS" version="2.0">
<header><CREATION_DATE/><ORIGINATOR/></header><body><segment><metadata><OBJECT_NAME>IRIDIUM 57</OBJECT_NAME><OBJECT_ID>1998-019B</OBJECT_ID><CENTER_NAME>EARTH</CENTER_NAME><REF_FRAME>TEME</REF_FRAME><TIME_SYSTEM>UTC</TIME_SYSTEM><MEAN_ELEMENT_THEORY>SGP4</MEAN_ELEMENT_THEORY></metadata><data><meanElements><EPOCH>2024-09-09T02:00:53.766432</EPOCH><MEAN_MOTION>14.35381696</MEAN_MOTION><ECCENTRICITY>.0002202</ECCENTRICITY><INCLINATION>86.3898</INCLINATION><RA_OF_ASC_NODE>262.9636</RA_OF_ASC_NODE><ARG_OF_PERICENTER>90.4854</ARG_OF_PERICENTER><MEAN_ANOMALY>269.6595</MEAN_ANOMALY></meanElements><tleParameters><EPHEMERIS_TYPE>0</EPHEMERIS_TYPE><CLASSIFICATION_TYPE>U</CLASSIFICATION_TYPE><NORAD_CAT_ID>25273</NORAD_CAT_ID><ELEMENT_SET_NO>999</ELEMENT_SET_NO><REV_AT_EPOCH>38466</REV_AT_EPOCH><BSTAR>.46725E-3</BSTAR><MEAN_MOTION_DOT>.1359E-4</MEAN_MOTION_DOT><MEAN_MOTION_DDOT>0</MEAN_MOTION_DDOT></tleParameters></data></segment></body></omm>
<omm id="CCSDS_OMM_VERS" version="2.0">
<header><CREATION_DATE/><ORIGINATOR/></header><body><segment><metadata><OBJECT_NAME>IRIDIUM 63</OBJECT_NAME><OBJECT_ID>1998-021B</OBJECT_ID><CENTER_NAME>EARTH</CENTER_NAME><REF_FRAME>TEME</REF_FRAME><TIME_SYSTEM>UTC</TIME_SYSTEM><MEAN_ELEMENT_THEORY>SGP4</MEAN_ELEMENT_THEORY></metadata><data><meanElements><EPOCH>2024-09-08T22:27:22.995648</EPOCH><MEAN_MOTION>14.35971818</MEAN_MOTION><ECCENTRICITY>.0002585</ECCENTRICITY><INCLINATION>86.4037</INCLINATION><RA_OF_ASC_NODE>199.9578</RA_OF_ASC_NODE><ARG_OF_PERICENTER>87.9434</ARG_OF_PERICENTER><MEAN_ANOMALY>272.2059</MEAN_ANOMALY></meanElements><tleParameters><EPHEMERIS_TYPE>0</EPHEMERIS_TYPE><CLASSIFICATION_TYPE>U</CLASSIFICATION_TYPE><NORAD_CAT_ID>25286</NORAD_CAT_ID><ELEMENT_SET_NO>999</ELEMENT_SET_NO><REV_AT_EPOCH>38347</REV_AT_EPOCH><BSTAR>.74789E-3</BSTAR><MEAN_MOTION_DOT>.219E-4</MEAN_MOTION_DOT><MEAN_MOTION_DDOT>0</MEAN_MOTION_DDOT></tleParameters></data></segment></body></omm>
<omm id="CCSDS_OMM_VERS" version="2.0">
<header><CREATION_DATE/><ORIGINATOR/></header><body><segment><metadata><OBJECT_NAME>IRIDIUM 69</OBJECT_NAME><OBJECT_ID>1998-026A</OBJECT_ID><CENTER_NAME>EARTH</CENTER_NAME><REF_FRAME>TEME</REF_FRAME><TIME_SYSTEM>UTC</TIME_SYSTEM><MEAN_ELEMENT_THEORY>SGP4</MEAN_ELEMENT_THEORY></metadata><data><meanElements><EPOCH>2024-09-09T10:50:59.735328</EPOCH><MEAN_MOTION>14.40225166</MEAN_MOTION><ECCENTRICITY>.0001575</ECCENTRICITY><INCLINATION>86.4005</INCLINATION><RA_OF_ASC_NODE>213.8606</RA_OF_ASC_NODE><ARG_OF_PERICENTER>152.7999</ARG_OF_PERICENTER><MEAN_ANOMALY>207.3283</MEAN_ANOMALY></meanElements><tleParameters><EPHEMERIS_TYPE>0</EPHEMERIS_TYPE><CLASSIFICATION_TYPE>U</CLASSIFICATION_TYPE><NORAD_CAT_ID>25319</NORAD_CAT_ID><ELEMENT_SET_NO>999</ELEMENT_SET_NO><REV_AT_EPOCH>38288</REV_AT_EPOCH><BSTAR>.86846E-3</BSTAR><MEAN_MOTION_DOT>.2765E-4</MEAN_MOTION_DOT><MEAN_MOTION_DDOT>0</MEAN_MOTION_DDOT></tleParameters></data></segment></body></omm>
<omm id="CCSDS_OMM_VERS" version="2.0">
<header><CREATION_DATE/><ORIGINATOR/></header><body><segment><metadata><OBJECT_NAME>IRIDIUM 71</OBJECT_NAME><OBJECT_ID>1998-026B</OBJECT_ID><CENTER_NAME>EARTH</CENTER_NAME><REF_FRAME>TEME</REF_FRAME><TIME_SYSTEM>UTC</TIME_SYSTEM><MEAN_ELEMENT_THEORY>SGP4</MEAN_ELEMENT_THEORY></metadata><data><meanElements><EPOCH>2024-09-09T10:25:04.181952</EPOCH><MEAN_MOTION>14.40537408</MEAN_MOTION><ECCENTRICITY>.0001044</ECCENTRICITY><INCLINATION>86.4012</INCLINATION><RA_OF_ASC_NODE>208.6160</RA_OF_ASC_NODE><ARG_OF_PERICENTER>27.5300</ARG_OF_PERICENTER><MEAN_ANOMALY>332.5955</MEAN_ANOMALY></meanElements><tleParameters><EPHEMERIS_TYPE>0</EPHEMERIS_TYPE><CLASSIFICATION_TYPE>U</CLASSIFICATION_TYPE><NORAD_CAT_ID>25320</NORAD_CAT_ID><ELEMENT_SET_NO>999</ELEMENT_SET_NO><REV_AT_EPOCH>38341</REV_AT_EPOCH><BSTAR>.82166E-3</BSTAR><MEAN_MOTION_DOT>.2634E-4</MEAN_MOTION_DOT><MEAN_MOTION_DDOT>0</MEAN_MOTION_DDOT></tleParameters></data></segment></body></omm>
<omm id="CCSDS_OMM_VERS" version="2.0">
<header><CREATION_DATE/><ORIGINATOR/></header><body><segment><metadata><OBJECT_NAME>IRIDIUM 73</OBJECT_NAME><OBJECT_ID>1998-032C</OBJECT_ID><CENTER_NAME>EARTH</CENTER_NAME><REF_FRAME>TEME</REF_FRAME><TIME_SYSTEM>UTC</TIME_SYSTEM><MEAN_ELEMENT_THEORY>SGP4</MEAN_ELEMENT_THEORY></metadata><data><meanElements><EPOCH>2024-09-09T12:32:25.267488</EPOCH><MEAN_MOTION>14.50851137</MEAN_MOTION><ECCENTRICITY>.000205</ECCENTRICITY><INCLINATION>86.4485</INCLINATION><RA_OF_ASC_NODE>165.9239</RA_OF_ASC_NODE><ARG_OF_PERICENTER>96.9577</ARG_OF_PERICENTER><MEAN_ANOMALY>263.1862</MEAN_ANOMALY></meanElements><tleParameters><EPHEMERIS_TYPE>0</EPHEMERIS_TYPE><CLASSIFICATION_TYPE>U</CLASSIFICATION_TYPE><NORAD_CAT_ID>25344</NORAD_CAT_ID><ELEMENT_SET_NO>999</ELEMENT_SET_NO><REV_AT_EPOCH>39015</REV_AT_EPOCH><BSTAR>.73357E-3</BSTAR><MEAN_MOTION_DOT>.291E-4</MEAN_MOTION_DOT><MEAN_MOTION_DDOT>0</MEAN_MOTION_DDOT></tleParameters></data></segment></body></omm>
<omm id="CCSDS_OMM_VERS" version="2.0">
<header><CREATION_DATE/><ORIGINATOR/></header><body><segment><metadata><OBJECT_NAME>IRIDIUM 82</OBJECT_NAME><OBJECT_ID>1998-051A</OBJECT_ID><CENTER_NAME>EARTH</CENTER_NAME><REF_FRAME>TEME</REF_FRAME><TIME_SYSTEM>UTC</TIME_SYSTEM><MEAN_ELEMENT_THEORY>SGP4</MEAN_ELEMENT_THEORY></metadata><data><meanElements><EPOCH>2024-09-09T01:25:33.417984</EPOCH><MEAN_MOTION>15.14158032</MEAN_MOTION><ECCENTRICITY>.0115401</ECCENTRICITY><INCLINATION>86.3706</INCLINATION><RA_OF_ASC_NODE>245.8530</RA_OF_ASC_NODE><ARG_OF_PERICENTER>270.8144</ARG_OF_PERICENTER><MEAN_ANOMALY>87.9875</MEAN_ANOMALY></meanElements><tleParameters><EPHEMERIS_TYPE>0</EPHEMERIS_TYPE><CLASSIFICATION_TYPE>U</CLASSIFICATION_TYPE><NORAD_CAT_ID>25467</NORAD_CAT_ID><ELEMENT_SET_NO>999</ELEMENT_SET_NO><REV_AT_EPOCH>38116</REV_AT_EPOCH><BSTAR>.14411E-2</BSTAR><MEAN_MOTION_DOT>.31149E-3</MEAN_MOTION_DOT><MEAN_MOTION_DDOT>0</MEAN_MOTION_DDOT></tleParameters></data></segment></body></omm>
</ndm>
